#aV2010  8  2  0  0   .00000000      96 DD+AD WGS84 FIT  NGA
## 1595  86400.00000000   900.00000000 55410  .0000000000000
+   31     1  2  3  4  5  6  7  8  9 10 11 12 13 14 15 16 17
+         18 19 20 21 22 23 24 26 27 28 29 30 31 32  0  0  0
+          0  0  0  0  0  0  0  0  0  0  0  0  0  0  0  0  0
+          0  0  0  0  0  0  0  0  0  0  0  0  0  0  0  0  0
+          0  0  0  0  0  0  0  0  0  0  0  0  0  0  0  0  0
++         0  0  0  0  0  0  0  0  0  0  0  0  0  0  0  0  0
++         0  0  0  0  0  0  0  0  0  0  0  0  0  0  0  0  0
++         0  0  0  0  0  0  0  0  0  0  0  0  0  0  0  0  0
++         0  0  0  0  0  0  0  0  0  0  0  0  0  0  0  0  0
++         0  0  0  0  0  0  0  0  0  0  0  0  0  0  0  0  0
%c cc cc ccc ccc cccc cccc cccc cccc ccccc ccccc ccccc ccccc
%c cc cc ccc ccc cccc cccc cccc cccc ccccc ccccc ccccc ccccc
%f  0.0000000  0.000000000  0.00000000000  0.000000000000000
%f  0.0000000  0.000000000  0.00000000000  0.000000000000000
%i    0    0    0    0      0      0      0      0         0
%i    0    0    0    0      0      0      0      0         0
/*      NGA, ST. LOUIS,MO.                                  
/*   EPHEMERIS COMPUTED FROM  3 DAYS OF DATA                
/* CCCCCCCCCCCCCCCCCCCCCCCCCCCCCCCCCCCCCCCCCCCCCCCCCCCCCCCCC
/* CCCCCCCCCCCCCCCCCCCCCCCCCCCCCCCCCCCCCCCCCCCCCCCCCCCCCCCCC
*  2010  8  2  1  0   .00000000                                                 
P  1  -2201.980543  23585.826113 -11996.380986   -147.488791                    
V  1  -8647.030304  12580.949556  26704.015622      -.039942                    
P  2 -13107.063472 -23142.886779   3386.886312    277.579840                    
V  2   4944.945168   1755.382406  30588.252480       .029855                    
P  3  14833.687621  11741.588719 -19146.250831    589.547064                    
V  3 -22822.580087   5925.440001 -13990.581887       .051400                    
P  4  -2150.678752 -21998.552298  14288.725893    137.563380                    
V  4  12799.385512  13866.216762  23348.942249       .081819                    
P  5  -6980.158688 -16795.117290 -19338.732295    -19.668650                    
V  5  11966.954892 -21501.568408  14446.897157      -.037595                    
P  6   9358.981406  14021.654085 -20383.394119    550.188275                    
V  6 -26028.620235   4131.904403  -8868.745418      -.145624                    
P  7  13350.612552  -6925.371545 -21911.148350     -1.885091                    
V  7  15346.935488  23117.776420   1864.834429      -.000171                    
P  8   4907.429753 -17082.005202 -19554.485593      6.287398                    
V  8  13332.315167  21075.739391 -15594.948691       .000366                    
P  9 -19341.049621 -12624.034333  12589.364502     21.827665                    
V  9  -8207.816748 -14821.991011 -26310.916387       .022881                    
P 10   2957.677555 -23630.495977 -11567.245806    -48.559793                    
V 10   9193.427452 -11629.188733  26875.899572      -.010017                    
P 11  22207.587362   5348.714530  13564.713725    -79.655715                    
V 11  10663.556807  14661.059063 -22412.636740      -.025802                    
P 12 -16199.220626    208.420962  21054.488066    -87.427771                    
V 12  11287.050594 -24151.194332   9089.138611       .039462                    
P 13  24662.351393  -5446.133994  -8434.095495    300.603161                    
V 13  10467.158416   1625.166067  30004.273476      -.007397                    
P 14  -7960.972634  14154.145379  21130.887441     74.110977                    
V 14 -26470.062224   -139.164575 -10081.448764       .039971                    
P 15 -22817.039490  -6586.411050 -12004.387004   -230.313620                    
V 15  14969.181546  -3759.743833 -26233.445850       .059043                    
P 16   2306.472041  20265.482431 -16824.878638    -95.291735                    
V 16 -11537.784124  18238.308984  20615.366113      -.035325                    
P 17  10953.763872 -14215.605999  19615.794501    164.696315                    
V 17  24781.252582    214.242680 -13966.988455       .017294                    
P 18 -17081.201395  17383.647872  -9796.917482     84.465039                    
V 18   2808.247635 -13201.212928 -27905.324802       .023310                    
P 19  22965.715478   7990.026062 -11038.020703    -54.325726                    
V 19 -13965.476713   2124.336113 -27145.148586      -.029727                    
P 20  17092.478567  -1958.602767  20090.300581     52.651534                    
V 20  -9484.103291  24141.716062  10403.441074      -.004162                    
P 21 -11999.617128  10160.814216 -21019.176827    -78.100901                    
V 21 -15667.378373 -22816.777860  -2674.490901      -.026193                    
P 22 -11371.622128  23915.727907   1333.066214    166.240092                    
V 22  -4008.530382   -395.595863 -31152.337123      -.008485                    
P 23  26687.891321   -468.896129   1644.222149    360.387209                    
V 23  -1945.815902   2434.048684  31597.317346      -.016475                    
P 24   8082.972059  24220.482506  -7724.228581    309.389132                    
V 24  -7470.444729  -7010.372947 -29249.605972       .031757                    
P 26 -16151.871208 -11884.034757 -18156.987340    -91.320615                    
V 26  21754.832528   -756.014280 -19050.206288      -.064530                    
P 27 -19815.774015 -15202.350259   9978.192400    175.780202                    
V 27  -5605.241702 -10311.935664 -28639.354120       .034675                    
P 28  12944.591545 -22971.965262   -853.362337     -8.678599                    
V 28   1643.947145   2773.579578 -32149.607407       .012985                    
P 29 -24923.806094   5775.808423  -6965.537450    138.814448                    
V 29  -9064.424979  -2388.761123  30112.881761       .029218                    
P 30 -17222.489517  13091.508492  14974.598808    265.745600                    
V 30   5823.216231 -19022.833250  22759.643695       .033331                    
P 31   4604.964153  22713.915986  13016.718862    -20.313360                    
V 31 -10609.997389 -12437.090346  26031.131843       .027594                    
P 32  13996.059383   6596.904911  21908.228234    -51.648319                    
V 32 -13656.881287  23351.872733   2065.230018      -.087483                    
EOF
